IRIDIUM 26              
1 24903U 97043A   25257.58477495  .00000323  00000+0  10188-3 0  9999
2 24903  86.3899  73.0351 0002256  94.5991 265.5465 14.37206116469580
IRIDIUM 22              
1 24907U 97043E   25257.58866189  .00000282  00000+0  90155-4 0  9992
2 24907  86.3900  76.6531 0002251  89.6118 270.5337 14.36012022469604
DUMMY MASS 1            
1 24925U 97048A   25257.58083033  .00000319  00000+0  32369-4 0  9990
2 24925  86.3289  93.9801 0006655 169.0038 191.1333 14.87051826518411
DUMMY MASS 2            
1 24926U 97048B   25257.55787668  .00000311  00000+0  31676-4 0  9995
2 24926  86.3291  95.6163 0006880 182.9818 177.1367 14.86803391518181
IRIDIUM 29              
1 24944U 97051A   25257.57953199  .00000281  00000+0  89011-4 0  9997
2 24944  86.3911 106.3991 0002090  82.0365 278.1069 14.36532720466100
IRIDIUM 33              
1 24946U 97051C   25257.59013651  .00000214  00000+0  68163-4 0  9992
2 24946  86.3826 105.6623 0009134 135.3136 224.8798 14.34939098465568
IRIDIUM 28              
1 24948U 97051E   25257.56616737  .00000248  00000+0  76503-4 0  9999
2 24948  86.3914 103.8674 0002403  99.4009 260.7461 14.37440385466684
IRIDIUM 36              
1 24967U 97056C   25257.58504800  .00000257  00000+0  78907-4 0  9994
2 24967  86.3985 135.4771 0002381  87.3410 272.8060 14.37669775465065
